SL-16 R/B               
1 22803U 93059B   26083.15779226  .00000029  00000+0  38313-4 0  9991
2 22803  70.9928 340.6183 0017689 195.6191 164.4389 14.17235346681589
ARIANE 40 R/B           
1 22830U 93061H   26083.15345556  .00000226  00000+0  98489-4 0  9998
2 22830  98.4889 151.7539 0009771 237.3197 122.7046 14.32868352696173
COSMOS 2278             
1 23087U 94023A   26083.30821752 -.00000240  00000+0 -10054-3 0  9995
2 23087  71.0531 144.5161 0008980 349.5216  10.5718 14.14377213646872
SL-16 R/B               
1 23088U 94023B   26083.20675599  .00000260  00000+0  15896-3 0  9990
2 23088  71.0005  40.3975 0005471 271.7403  88.3093 14.15011966648143
SL-16 R/B               
1 23343U 94074B   26083.32560756  .00000463  00000+0  68612-4 0  9991
2 23343  97.7089 113.5495 0006957 161.6191 209.1948 14.79423909689416
SL-16 R/B               
1 23405U 94077B   26083.11203899  .00000148  00000+0  10024-3 0  9995
2 23405  70.9843 322.1491 0002247 198.5136 161.5906 14.15568435618271
ARIANE 40+ R/B          
1 23561U 95021B   26083.20246826  .00000312  00000+0  11327-3 0  9995
2 23561  98.4472 154.4867 0007970  98.9405 322.7872 14.39782581621330
SL-16 R/B               
1 23705U 95058B   26083.19038414 -.00000153  00000+0 -53925-4 0  9991
2 23705  71.0216 149.8137 0010152  98.9225 261.3048 14.15500623569903
SL-16 R/B               
1 24298U 96051B   26083.18858407  .00000093  00000+0  77070-4 0  9992
2 24298  70.7593 144.5523 0013862 124.9831 235.2593 14.12419668523696
ORBVIEW 2 (SEASTAR)     
1 24883U 97037A   26083.19467248  .00000281  00000+0  11395-3 0  9993
2 24883  98.8593 247.8927 0002622  41.3289 318.8094 14.35504658510557
SL-16 R/B               
1 25400U 98043G   26083.11506385  .00000069  00000+0  47972-4 0  9990
2 25400  98.8279  36.5828 0009455 338.7691  21.3095 14.26052907441047
SL-16 R/B               
1 25407U 98045B   26083.19419086 -.00000158  00000+0 -55582-4 0  9995
2 25407  71.0114 151.0738 0007737 345.1441  14.9454 14.16195353429151
ISS (ZARYA)             
1 25544U 98067A   26083.16360592  .00014170  00000+0  26927-3 0  9992
2 25544  51.6345   0.8084 0006267 226.2093 133.8378 15.48514008558570
CZ-4B R/B               
1 25732U 99025C   26083.12799251  .00000028  00000+0  34415-4 0  9999
2 25732  98.6598 127.0657 0036126 304.3025 117.5315 14.18268057390219
OKEAN-O                 
1 25860U 99039A   26083.18443641  .00000700  00000+0  98649-4 0  9997
2 25860  97.9412 142.9265 0000918  83.2794 276.8523 14.80357799436532
SL-16 R/B               
1 25861U 99039B   26083.15067408  .00000604  00000+0  83329-4 0  9990
2 25861  97.9935 142.2236 0014200 205.7667 154.2840 14.81750494439009
DELTA 2 R/B             
1 25876U 99041E   26082.74165472  .00000486  00000+0  11788-3 0  9990
2 25876  51.7605 245.1476 0502617  29.8785 332.9857 14.11869343365015
