[{"OBJECT_NAME":"SL-16 R/B","OBJECT_ID":"1993-059B","EPOCH":"2026-03-24T03:47:13.251264","MEAN_MOTION":14.17235346,"ECCENTRICITY":0.00176896,"INCLINATION":70.9928,"RA_OF_ASC_NODE":340.6183,"ARG_OF_PERICENTER":195.6191,"MEAN_ANOMALY":164.4389,"EPHEMERIS_TYPE":0,"CLASSIFICATION_TYPE":"U","NORAD_CAT_ID":22803,"ELEMENT_SET_NO":999,"REV_AT_EPOCH":68158,"BSTAR":3.831338e-5,"MEAN_MOTION_DOT":2.9e-7,"MEAN_MOTION_DDOT":0},{"OBJECT_NAME":"ARIANE 40 R/B","OBJECT_ID":"1993-061H","EPOCH":"2026-03-24T03:40:58.560384","MEAN_MOTION":14.32868352,"ECCENTRICITY":0.00097715,"INCLINATION":98.4889,"RA_OF_ASC_NODE":151.7539,"ARG_OF_PERICENTER":237.3197,"MEAN_ANOMALY":122.7046,"EPHEMERIS_TYPE":0,"CLASSIFICATION_TYPE":"U","NORAD_CAT_ID":22830,"ELEMENT_SET_NO":999,"REV_AT_EPOCH":69617,"BSTAR":9.8488734e-5,"MEAN_MOTION_DOT":2.26e-6,"MEAN_MOTION_DDOT":0},{"OBJECT_NAME":"COSMOS 2278","OBJECT_ID":"1994-023A","EPOCH":"2026-03-24T07:23:49.993728","MEAN_MOTION":14.14377213,"ECCENTRICITY":0.00089809,"INCLINATION":71.0531,"RA_OF_ASC_NODE":144.5161,"ARG_OF_PERICENTER":349.5216,"MEAN_ANOMALY":10.5718,"EPHEMERIS_TYPE":0,"CLASSIFICATION_TYPE":"U","NORAD_CAT_ID":23087,"ELEMENT_SET_NO":999,"REV_AT_EPOCH":64687,"BSTAR":-0.00010053521,"MEAN_MOTION_DOT":-2.4e-6,"MEAN_MOTION_DDOT":0},{"OBJECT_NAME":"SL-16 R/B","OBJECT_ID":"1994-023B","EPOCH":"2026-03-24T04:57:43.717536","MEAN_MOTION":14.15011966,"ECCENTRICITY":0.0005471,"INCLINATION":71.0005,"RA_OF_ASC_NODE":40.3975,"ARG_OF_PERICENTER":271.7403,"MEAN_ANOMALY":88.3093,"EPHEMERIS_TYPE":0,"CLASSIFICATION_TYPE":"U","NORAD_CAT_ID":23088,"ELEMENT_SET_NO":999,"REV_AT_EPOCH":64814,"BSTAR":0.00015896206,"MEAN_MOTION_DOT":2.6e-6,"MEAN_MOTION_DDOT":0},{"OBJECT_NAME":"SL-16 R/B","OBJECT_ID":"1994-074B","EPOCH":"2026-03-24T07:48:52.493184","MEAN_MOTION":14.79423909,"ECCENTRICITY":0.00069572,"INCLINATION":97.7089,"RA_OF_ASC_NODE":113.5495,"ARG_OF_PERICENTER":161.6191,"MEAN_ANOMALY":209.1948,"EPHEMERIS_TYPE":0,"CLASSIFICATION_TYPE":"U","NORAD_CAT_ID":23343,"ELEMENT_SET_NO":999,"REV_AT_EPOCH":68941,"BSTAR":6.8612173e-5,"MEAN_MOTION_DOT":4.63e-6,"MEAN_MOTION_DDOT":0},{"OBJECT_NAME":"SL-16 R/B","OBJECT_ID":"1994-077B","EPOCH":"2026-03-24T02:41:20.168736","MEAN_MOTION":14.15568435,"ECCENTRICITY":0.00022473,"INCLINATION":70.9843,"RA_OF_ASC_NODE":322.1491,"ARG_OF_PERICENTER":198.5136,"MEAN_ANOMALY":161.5906,"EPHEMERIS_TYPE":0,"CLASSIFICATION_TYPE":"U","NORAD_CAT_ID":23405,"ELEMENT_SET_NO":999,"REV_AT_EPOCH":61827,"BSTAR":0.00010023701,"MEAN_MOTION_DOT":1.48e-6,"MEAN_MOTION_DDOT":0},{"OBJECT_NAME":"ARIANE 40+ R/B","OBJECT_ID":"1995-021B","EPOCH":"2026-03-24T04:51:33.257664","MEAN_MOTION":14.39782581,"ECCENTRICITY":0.000797,"INCLINATION":98.4472,"RA_OF_ASC_NODE":154.4867,"ARG_OF_PERICENTER":98.9405,"MEAN_ANOMALY":322.7872,"EPHEMERIS_TYPE":0,"CLASSIFICATION_TYPE":"U","NORAD_CAT_ID":23561,"ELEMENT_SET_NO":999,"REV_AT_EPOCH":62133,"BSTAR":0.00011326917,"MEAN_MOTION_DOT":3.12e-6,"MEAN_MOTION_DDOT":0},{"OBJECT_NAME":"SL-16 R/B","OBJECT_ID":"1995-058B","EPOCH":"2026-03-24T04:34:09.189696","MEAN_MOTION":14.15500623,"ECCENTRICITY":0.00101523,"INCLINATION":71.0216,"RA_OF_ASC_NODE":149.8137,"ARG_OF_PERICENTER":98.9225,"MEAN_ANOMALY":261.3048,"EPHEMERIS_TYPE":0,"CLASSIFICATION_TYPE":"U","NORAD_CAT_ID":23705,"ELEMENT_SET_NO":999,"REV_AT_EPOCH":56990,"BSTAR":-5.3925094e-5,"MEAN_MOTION_DOT":-1.53e-6,"MEAN_MOTION_DDOT":0},{"OBJECT_NAME":"SL-16 R/B","OBJECT_ID":"1996-051B","EPOCH":"2026-03-24T04:31:33.663648","MEAN_MOTION":14.12419668,"ECCENTRICITY":0.00138625,"INCLINATION":70.7593,"RA_OF_ASC_NODE":144.5523,"ARG_OF_PERICENTER":124.9831,"MEAN_ANOMALY":235.2593,"EPHEMERIS_TYPE":0,"CLASSIFICATION_TYPE":"U","NORAD_CAT_ID":24298,"ELEMENT_SET_NO":999,"REV_AT_EPOCH":52369,"BSTAR":7.7069927e-5,"MEAN_MOTION_DOT":9.3e-7,"MEAN_MOTION_DDOT":0},{"OBJECT_NAME":"ORBVIEW 2 (SEASTAR)","OBJECT_ID":"1997-037A","EPOCH":"2026-03-24T04:40:19.702272","MEAN_MOTION":14.35504658,"ECCENTRICITY":0.00026227,"INCLINATION":98.8593,"RA_OF_ASC_NODE":247.8927,"ARG_OF_PERICENTER":41.3289,"MEAN_ANOMALY":318.8094,"EPHEMERIS_TYPE":0,"CLASSIFICATION_TYPE":"U","NORAD_CAT_ID":24883,"ELEMENT_SET_NO":999,"REV_AT_EPOCH":51055,"BSTAR":0.00011394551,"MEAN_MOTION_DOT":2.81e-6,"MEAN_MOTION_DDOT":0},{"OBJECT_NAME":"SL-16 R/B","OBJECT_ID":"1998-043G","EPOCH":"2026-03-24T02:45:41.516640","MEAN_MOTION":14.26052907,"ECCENTRICITY":0.00094554,"INCLINATION":98.8279,"RA_OF_ASC_NODE":36.5828,"ARG_OF_PERICENTER":338.7691,"MEAN_ANOMALY":21.3095,"EPHEMERIS_TYPE":0,"CLASSIFICATION_TYPE":"U","NORAD_CAT_ID":25400,"ELEMENT_SET_NO":999,"REV_AT_EPOCH":44104,"BSTAR":4.7971533e-5,"MEAN_MOTION_DOT":6.9e-7,"MEAN_MOTION_DDOT":0},{"OBJECT_NAME":"SL-16 R/B","OBJECT_ID":"1998-045B","EPOCH":"2026-03-24T04:39:38.090304","MEAN_MOTION":14.16195353,"ECCENTRICITY":0.00077379,"INCLINATION":71.0114,"RA_OF_ASC_NODE":151.0738,"ARG_OF_PERICENTER":345.1441,"MEAN_ANOMALY":14.9454,"EPHEMERIS_TYPE":0,"CLASSIFICATION_TYPE":"U","NORAD_CAT_ID":25407,"ELEMENT_SET_NO":999,"REV_AT_EPOCH":42915,"BSTAR":-5.5581747e-5,"MEAN_MOTION_DOT":-1.58e-6,"MEAN_MOTION_DDOT":0},{"OBJECT_NAME":"ISS (ZARYA)","OBJECT_ID":"1998-067A","EPOCH":"2026-03-24T03:55:35.551488","MEAN_MOTION":15.48514008,"ECCENTRICITY":0.00062677,"INCLINATION":51.6345,"RA_OF_ASC_NODE":0.8084,"ARG_OF_PERICENTER":226.2093,"MEAN_ANOMALY":133.8378,"EPHEMERIS_TYPE":0,"CLASSIFICATION_TYPE":"U","NORAD_CAT_ID":25544,"ELEMENT_SET_NO":999,"REV_AT_EPOCH":55857,"BSTAR":0.0002692749,"MEAN_MOTION_DOT":0.0001417,"MEAN_MOTION_DDOT":0},{"OBJECT_NAME":"CZ-4B R/B","OBJECT_ID":"1999-025C","EPOCH":"2026-03-24T03:04:18.552864","MEAN_MOTION":14.18268057,"ECCENTRICITY":0.00361261,"INCLINATION":98.6598,"RA_OF_ASC_NODE":127.0657,"ARG_OF_PERICENTER":304.3025,"MEAN_ANOMALY":117.5315,"EPHEMERIS_TYPE":0,"CLASSIFICATION_TYPE":"U","NORAD_CAT_ID":25732,"ELEMENT_SET_NO":999,"REV_AT_EPOCH":39021,"BSTAR":3.4414653e-5,"MEAN_MOTION_DOT":2.8e-7,"MEAN_MOTION_DDOT":0},{"OBJECT_NAME":"OKEAN-O","OBJECT_ID":"1999-039A","EPOCH":"2026-03-24T04:25:35.305824","MEAN_MOTION":14.80357799,"ECCENTRICITY":9.182e-5,"INCLINATION":97.9412,"RA_OF_ASC_NODE":142.9265,"ARG_OF_PERICENTER":83.2794,"MEAN_ANOMALY":276.8523,"EPHEMERIS_TYPE":0,"CLASSIFICATION_TYPE":"U","NORAD_CAT_ID":25860,"ELEMENT_SET_NO":999,"REV_AT_EPOCH":43653,"BSTAR":9.864939e-5,"MEAN_MOTION_DOT":7.0e-6,"MEAN_MOTION_DDOT":0},{"OBJECT_NAME":"SL-16 R/B","OBJECT_ID":"1999-039B","EPOCH":"2026-03-24T03:36:58.240512","MEAN_MOTION":14.81750494,"ECCENTRICITY":0.00142002,"INCLINATION":97.9935,"RA_OF_ASC_NODE":142.2236,"ARG_OF_PERICENTER":205.7667,"MEAN_ANOMALY":154.284,"EPHEMERIS_TYPE":0,"CLASSIFICATION_TYPE":"U","NORAD_CAT_ID":25861,"ELEMENT_SET_NO":999,"REV_AT_EPOCH":43900,"BSTAR":8.3329299e-5,"MEAN_MOTION_DOT":6.04e-6,"MEAN_MOTION_DDOT":0},{"OBJECT_NAME":"DELTA 2 R/B","OBJECT_ID":"1999-041E","EPOCH":"2026-03-23T17:47:58.967808","MEAN_MOTION":14.11869343,"ECCENTRICITY":0.05026176,"INCLINATION":51.7605,"RA_OF_ASC_NODE":245.1476,"ARG_OF_PERICENTER":29.8785,"MEAN_ANOMALY":332.9857,"EPHEMERIS_TYPE":0,"CLASSIFICATION_TYPE":"U","NORAD_CAT_ID":25876,"ELEMENT_SET_NO":999,"REV_AT_EPOCH":36501,"BSTAR":0.00011787964,"MEAN_MOTION_DOT":4.86e-6,"MEAN_MOTION_DDOT":0}]
